KUIPER-00132            
1 65763U 25217B   26063.16596023  .00044589  00000+0  11203-2 0  9991
2 65763  51.8620  30.3106 0006667 315.5732  44.4720 15.39515128 24574
KUIPER-00133            
1 65764U 25217C   26063.23621287  .00005986  00000+0  81315-3 0  9991
2 65764  51.9037  77.2335 0002113  14.0409 346.0612 14.79953561 23936
KUIPER-00139            
1 65765U 25217D   26063.38548925  .00015260  00000+0  11756-2 0  9992
2 65765  51.8863  58.0808 0007124 302.6828  57.3456 15.01785245 24211
KUIPER-00142            
1 65766U 25217E   26063.42400230  .00000617  00000+0  10996-3 0  9990
2 65766  51.8996  58.8754 0000665  84.4490 275.6548 14.79930288 24209
KUIPER-00145            
1 65767U 25217F   26063.35367902  .00006600  00000+0  89383-3 0  9995
2 65767  51.8981  61.6991 0000680  82.0877 278.0163 14.79936126 24150
KUIPER-00147            
1 65768U 25217G   26063.18224314  .00000641  00000+0  11301-3 0  9990
2 65768  51.9003  64.9535 0000892 118.2829 241.8224 14.79959042 24092
KUIPER-00148            
1 65769U 25217H   26063.37615796  .00017920  00000+0  11171-2 0  9992
2 65769  51.8786  49.2745 0008590 336.7362  23.3223 15.09570829 24336
KUIPER-00150            
1 65770U 25217J   26063.30636704  .00006286  00000+0  85151-3 0  9992
2 65770  51.9004  74.4083 0000700  48.9950 311.1073 14.79998021 23971
KUIPER-00151            
1 65771U 25217K   26063.31457780  .00006931  00000+0  93651-3 0  9990
2 65771  51.9008  66.8695 0001029  49.5936 310.5116 14.79967528 24088
KUIPER-00152            
1 65772U 25217L   26063.36182728  .00005189  00000+0  70842-3 0  9994
2 65772  51.9002  54.1533 0000783 132.1888 227.9141 14.79979444 24264
KUIPER-00153            
1 65773U 25217M   26063.31514453  .00021108  00000+0  11895-2 0  9995
2 65773  51.8776  52.5687 0010497 308.9567  51.0473 15.13107826 24286
KUIPER-00155            
1 65774U 25217N   26063.21870277  .00027177  00000+0  11502-2 0  9991
2 65774  51.8788  37.3958 0005469 313.3236  46.7289 15.22979615 24489
KUIPER-00156            
1 65775U 25217P   26063.33344585  .00007718  00000+0  10394-2 0  9990
2 65775  51.9030  49.3068 0000713  94.7866 265.3178 14.79966242 24324
KUIPER-00158            
1 65776U 25217Q   26063.20198479  .00007727  00000+0  10282-2 0  9992
2 65776  51.8968  69.7524 0001057  41.7557 318.3486 14.80474552 24037
KUIPER-00163            
1 65777U 25217R   26063.50001156  .00130817  00000+0  12461-1 0  9998
2 65777  51.8966  70.3821 0001738 359.1280  91.3524 14.92302058  5381
KUIPER-00165            
1 65778U 25217S   26063.39019105  .00005273  00000+0  71895-3 0  9994
2 65778  51.9012  59.0309 0000894 110.3797 249.7261 14.80003991 24190
KUIPER-00166            
1 65779U 25217T   26063.36998563  .00008589  00000+0  11529-2 0  9996
2 65779  51.9027  46.6429 0000779 112.6031 247.5013 14.79982865 24364
