[{"OBJECT_NAME":"KUIPER-00132","OBJECT_ID":"2025-217B","EPOCH":"2026-03-04T03:58:58.963872","MEAN_MOTION":15.39515128,"ECCENTRICITY":0.0006667,"INCLINATION":51.862,"RA_OF_ASC_NODE":30.3106,"ARG_OF_PERICENTER":315.5732,"MEAN_ANOMALY":44.472,"EPHEMERIS_TYPE":0,"CLASSIFICATION_TYPE":"U","NORAD_CAT_ID":65763,"ELEMENT_SET_NO":999,"REV_AT_EPOCH":2457,"BSTAR":0.0011203,"MEAN_MOTION_DOT":0.00044589,"MEAN_MOTION_DDOT":0},{"OBJECT_NAME":"KUIPER-00133","OBJECT_ID":"2025-217C","EPOCH":"2026-03-04T05:40:08.791968","MEAN_MOTION":14.79953561,"ECCENTRICITY":0.0002113,"INCLINATION":51.9037,"RA_OF_ASC_NODE":77.2335,"ARG_OF_PERICENTER":14.0409,"MEAN_ANOMALY":346.0612,"EPHEMERIS_TYPE":0,"CLASSIFICATION_TYPE":"U","NORAD_CAT_ID":65764,"ELEMENT_SET_NO":999,"REV_AT_EPOCH":2393,"BSTAR":0.00081315,"MEAN_MOTION_DOT":5.986e-5,"MEAN_MOTION_DDOT":0},{"OBJECT_NAME":"KUIPER-00139","OBJECT_ID":"2025-217D","EPOCH":"2026-03-04T09:15:06.271200","MEAN_MOTION":15.01785245,"ECCENTRICITY":0.0007124,"INCLINATION":51.8863,"RA_OF_ASC_NODE":58.0808,"ARG_OF_PERICENTER":302.6828,"MEAN_ANOMALY":57.3456,"EPHEMERIS_TYPE":0,"CLASSIFICATION_TYPE":"U","NORAD_CAT_ID":65765,"ELEMENT_SET_NO":999,"REV_AT_EPOCH":2421,"BSTAR":0.0011756,"MEAN_MOTION_DOT":0.0001526,"MEAN_MOTION_DDOT":0},{"OBJECT_NAME":"KUIPER-00142","OBJECT_ID":"2025-217E","EPOCH":"2026-03-04T10:10:33.798720","MEAN_MOTION":14.79930288,"ECCENTRICITY":6.65e-5,"INCLINATION":51.8996,"RA_OF_ASC_NODE":58.8754,"ARG_OF_PERICENTER":84.449,"MEAN_ANOMALY":275.6548,"EPHEMERIS_TYPE":0,"CLASSIFICATION_TYPE":"U","NORAD_CAT_ID":65766,"ELEMENT_SET_NO":999,"REV_AT_EPOCH":2420,"BSTAR":0.00010996,"MEAN_MOTION_DOT":6.17e-6,"MEAN_MOTION_DDOT":0},{"OBJECT_NAME":"KUIPER-00145","OBJECT_ID":"2025-217F","EPOCH":"2026-03-04T08:29:17.867328","MEAN_MOTION":14.79936126,"ECCENTRICITY":6.8e-5,"INCLINATION":51.8981,"RA_OF_ASC_NODE":61.6991,"ARG_OF_PERICENTER":82.0877,"MEAN_ANOMALY":278.0163,"EPHEMERIS_TYPE":0,"CLASSIFICATION_TYPE":"U","NORAD_CAT_ID":65767,"ELEMENT_SET_NO":999,"REV_AT_EPOCH":2415,"BSTAR":0.00089383,"MEAN_MOTION_DOT":6.6e-5,"MEAN_MOTION_DDOT":0},{"OBJECT_NAME":"KUIPER-00147","OBJECT_ID":"2025-217G","EPOCH":"2026-03-04T04:22:25.807296","MEAN_MOTION":14.79959042,"ECCENTRICITY":8.92e-5,"INCLINATION":51.9003,"RA_OF_ASC_NODE":64.9535,"ARG_OF_PERICENTER":118.2829,"MEAN_ANOMALY":241.8224,"EPHEMERIS_TYPE":0,"CLASSIFICATION_TYPE":"U","NORAD_CAT_ID":65768,"ELEMENT_SET_NO":999,"REV_AT_EPOCH":2409,"BSTAR":0.00011301,"MEAN_MOTION_DOT":6.41e-6,"MEAN_MOTION_DDOT":0},{"OBJECT_NAME":"KUIPER-00148","OBJECT_ID":"2025-217H","EPOCH":"2026-03-04T09:01:40.047744","MEAN_MOTION":15.09570829,"ECCENTRICITY":0.000859,"INCLINATION":51.8786,"RA_OF_ASC_NODE":49.2745,"ARG_OF_PERICENTER":336.7362,"MEAN_ANOMALY":23.3223,"EPHEMERIS_TYPE":0,"CLASSIFICATION_TYPE":"U","NORAD_CAT_ID":65769,"ELEMENT_SET_NO":999,"REV_AT_EPOCH":2433,"BSTAR":0.0011171,"MEAN_MOTION_DOT":0.0001792,"MEAN_MOTION_DDOT":0},{"OBJECT_NAME":"KUIPER-00150","OBJECT_ID":"2025-217J","EPOCH":"2026-03-04T07:21:10.112256","MEAN_MOTION":14.79998021,"ECCENTRICITY":7.0e-5,"INCLINATION":51.9004,"RA_OF_ASC_NODE":74.4083,"ARG_OF_PERICENTER":48.995,"MEAN_ANOMALY":311.1073,"EPHEMERIS_TYPE":0,"CLASSIFICATION_TYPE":"U","NORAD_CAT_ID":65770,"ELEMENT_SET_NO":999,"REV_AT_EPOCH":2397,"BSTAR":0.00085151,"MEAN_MOTION_DOT":6.286e-5,"MEAN_MOTION_DDOT":0},{"OBJECT_NAME":"KUIPER-00151","OBJECT_ID":"2025-217K","EPOCH":"2026-03-04T07:32:59.521920","MEAN_MOTION":14.79967528,"ECCENTRICITY":0.0001029,"INCLINATION":51.9008,"RA_OF_ASC_NODE":66.8695,"ARG_OF_PERICENTER":49.5936,"MEAN_ANOMALY":310.5116,"EPHEMERIS_TYPE":0,"CLASSIFICATION_TYPE":"U","NORAD_CAT_ID":65771,"ELEMENT_SET_NO":999,"REV_AT_EPOCH":2408,"BSTAR":0.00093651,"MEAN_MOTION_DOT":6.931e-5,"MEAN_MOTION_DDOT":0},{"OBJECT_NAME":"KUIPER-00152","OBJECT_ID":"2025-217L","EPOCH":"2026-03-04T08:41:01.876992","MEAN_MOTION":14.79979444,"ECCENTRICITY":7.83e-5,"INCLINATION":51.9002,"RA_OF_ASC_NODE":54.1533,"ARG_OF_PERICENTER":132.1888,"MEAN_ANOMALY":227.9141,"EPHEMERIS_TYPE":0,"CLASSIFICATION_TYPE":"U","NORAD_CAT_ID":65772,"ELEMENT_SET_NO":999,"REV_AT_EPOCH":2426,"BSTAR":0.00070842,"MEAN_MOTION_DOT":5.189e-5,"MEAN_MOTION_DDOT":0},{"OBJECT_NAME":"KUIPER-00153","OBJECT_ID":"2025-217M","EPOCH":"2026-03-04T07:33:48.487392","MEAN_MOTION":15.13107826,"ECCENTRICITY":0.0010497,"INCLINATION":51.8776,"RA_OF_ASC_NODE":52.5687,"ARG_OF_PERICENTER":308.9567,"MEAN_ANOMALY":51.0473,"EPHEMERIS_TYPE":0,"CLASSIFICATION_TYPE":"U","NORAD_CAT_ID":65773,"ELEMENT_SET_NO":999,"REV_AT_EPOCH":2428,"BSTAR":0.0011895,"MEAN_MOTION_DOT":0.00021108,"MEAN_MOTION_DDOT":0},{"OBJECT_NAME":"KUIPER-00155","OBJECT_ID":"2025-217N","EPOCH":"2026-03-04T05:14:55.919328","MEAN_MOTION":15.22979615,"ECCENTRICITY":0.0005469,"INCLINATION":51.8788,"RA_OF_ASC_NODE":37.3958,"ARG_OF_PERICENTER":313.3236,"MEAN_ANOMALY":46.7289,"EPHEMERIS_TYPE":0,"CLASSIFICATION_TYPE":"U","NORAD_CAT_ID":65774,"ELEMENT_SET_NO":999,"REV_AT_EPOCH":2448,"BSTAR":0.0011502,"MEAN_MOTION_DOT":0.00027177,"MEAN_MOTION_DDOT":0},{"OBJECT_NAME":"KUIPER-00156","OBJECT_ID":"2025-217P","EPOCH":"2026-03-04T08:00:09.721440","MEAN_MOTION":14.79966242,"ECCENTRICITY":7.13e-5,"INCLINATION":51.903,"RA_OF_ASC_NODE":49.3068,"ARG_OF_PERICENTER":94.7866,"MEAN_ANOMALY":265.3178,"EPHEMERIS_TYPE":0,"CLASSIFICATION_TYPE":"U","NORAD_CAT_ID":65775,"ELEMENT_SET_NO":999,"REV_AT_EPOCH":2432,"BSTAR":0.0010394,"MEAN_MOTION_DOT":7.718e-5,"MEAN_MOTION_DDOT":0},{"OBJECT_NAME":"KUIPER-00158","OBJECT_ID":"2025-217Q","EPOCH":"2026-03-04T04:50:51.485856","MEAN_MOTION":14.80474552,"ECCENTRICITY":0.0001057,"INCLINATION":51.8968,"RA_OF_ASC_NODE":69.7524,"ARG_OF_PERICENTER":41.7557,"MEAN_ANOMALY":318.3486,"EPHEMERIS_TYPE":0,"CLASSIFICATION_TYPE":"U","NORAD_CAT_ID":65776,"ELEMENT_SET_NO":999,"REV_AT_EPOCH":2403,"BSTAR":0.0010282,"MEAN_MOTION_DOT":7.727e-5,"MEAN_MOTION_DDOT":0},{"OBJECT_NAME":"KUIPER-00163","OBJECT_ID":"2025-217R","EPOCH":"2026-03-04T12:00:00.998784","MEAN_MOTION":14.92302058,"ECCENTRICITY":0.0001738,"INCLINATION":51.8966,"RA_OF_ASC_NODE":70.3821,"ARG_OF_PERICENTER":359.128,"MEAN_ANOMALY":91.3524,"EPHEMERIS_TYPE":0,"CLASSIFICATION_TYPE":"U","NORAD_CAT_ID":65777,"ELEMENT_SET_NO":999,"REV_AT_EPOCH":538,"BSTAR":0.012461,"MEAN_MOTION_DOT":0.00130817,"MEAN_MOTION_DDOT":0},{"OBJECT_NAME":"KUIPER-00165","OBJECT_ID":"2025-217S","EPOCH":"2026-03-04T09:21:52.506720","MEAN_MOTION":14.80003991,"ECCENTRICITY":8.94e-5,"INCLINATION":51.9012,"RA_OF_ASC_NODE":59.0309,"ARG_OF_PERICENTER":110.3797,"MEAN_ANOMALY":249.7261,"EPHEMERIS_TYPE":0,"CLASSIFICATION_TYPE":"U","NORAD_CAT_ID":65778,"ELEMENT_SET_NO":999,"REV_AT_EPOCH":2419,"BSTAR":0.00071895,"MEAN_MOTION_DOT":5.273e-5,"MEAN_MOTION_DDOT":0},{"OBJECT_NAME":"KUIPER-00166","OBJECT_ID":"2025-217T","EPOCH":"2026-03-04T08:52:46.758432","MEAN_MOTION":14.79982865,"ECCENTRICITY":7.79e-5,"INCLINATION":51.9027,"RA_OF_ASC_NODE":46.6429,"ARG_OF_PERICENTER":112.6031,"MEAN_ANOMALY":247.5013,"EPHEMERIS_TYPE":0,"CLASSIFICATION_TYPE":"U","NORAD_CAT_ID":65779,"ELEMENT_SET_NO":999,"REV_AT_EPOCH":2436,"BSTAR":0.0011529,"MEAN_MOTION_DOT":8.589e-5,"MEAN_MOTION_DDOT":0}]
